[{"OBJECT_NAME":"MOHAMMED VI-B","OBJECT_ID":"2018-095A","EPOCH":"2026-03-09T22:26:08.360736","MEAN_MOTION":14.77128516,"ECCENTRICITY":0.0001216,"INCLINATION":97.9414,"RA_OF_ASC_NODE":142.6736,"ARG_OF_PERICENTER":91.5089,"MEAN_ANOMALY":268.6261,"EPHEMERIS_TYPE":0,"CLASSIFICATION_TYPE":"U","NORAD_CAT_ID":43717,"ELEMENT_SET_NO":999,"REV_AT_EPOCH":39353,"BSTAR":0.00010160922,"MEAN_MOTION_DOT":6.68e-6,"MEAN_MOTION_DDOT":0},{"OBJECT_NAME":"CZ-4B DEB","OBJECT_ID":"1999-057SF","EPOCH":"2026-02-10T11:55:34.319136","MEAN_MOTION":14.62518288,"ECCENTRICITY":0.00739121,"INCLINATION":98.4669,"RA_OF_ASC_NODE":128.5951,"ARG_OF_PERICENTER":147.4178,"MEAN_ANOMALY":213.1616,"EPHEMERIS_TYPE":0,"CLASSIFICATION_TYPE":"U","NORAD_CAT_ID":35327,"ELEMENT_SET_NO":999,"REV_AT_EPOCH":69481,"BSTAR":0.0009004822,"MEAN_MOTION_DOT":4.698e-5,"MEAN_MOTION_DDOT":0}]
